STARLINK-4363           
1 53220U 22084AH  26068.73847173  .00000203  00000+0  20360-4 0  9999
2 53220  97.6035 130.2478 0002332 169.9042 190.2230 15.01259922199844
LEMUR-2-ALISIA          
1 62706U 25009DB  26068.73770453  .00009177  00000+0  72005-3 0  9995
2 62706  97.7037 151.6973 0006582 159.9869 200.1615 15.01147598 85230
